start=new Date('2023-03-18T00:00:00.000Z').valueOf();
sats=[{"RA_OF_ASC_NODE":"268.1350","ARG_OF_PERICENTER":"275.7990","PERIAPSIS":"356.893","ELEMENT_SET_NO":"999","SEMIMAJOR_AXIS":"6737.209","EPOCH":"2023-03-17T17:06:10.215936","DECAY_DATE":null,"COUNTRY_CODE":"US","EPHEMERIS_TYPE":"0","OBJECT_NAME":"STARLINK-5313","TLE_LINE1":"1 55313U 23010AW  23076.71261824  .00003141  00000-0  27866-4 0  9994","SITE":"AFWTR","OBJECT_ID":"2023-010AW","REV_AT_EPOCH":"1067","APOAPSIS":"361.255","MEAN_ANOMALY":"84.2836","RCS_SIZE":"LARGE","INCLINATION":"69.9986","NORAD_CAT_ID":"55313","TLE_LINE2":"2 55313  69.9986 268.1350 0003237 275.7990  84.2836 15.69938918 10679","MEAN_ELEMENT_THEORY":"SGP4","MEAN_MOTION_DDOT":"0.0000000000000","MEAN_MOTION_DOT":"0.00003141","REF_FRAME":"TEME","GP_ID":"228359599","LAUNCH_DATE":"2023-01-19","MEAN_MOTION":"15.69938918","CLASSIFICATION_TYPE":"U","TIME_SYSTEM":"UTC","PERIOD":"91.723","ECCENTRICITY":"0.00032370","CENTER_NAME":"EARTH","BSTAR":"0.00002786600000","FILE":"3863544","OBJECT_TYPE":"PAYLOAD"},{"FILE":"3863278","OBJECT_TYPE":"PAYLOAD","GP_ID":"228327299","LAUNCH_DATE":"2023-01-19","CLASSIFICATION_TYPE":"U","TIME_SYSTEM":"UTC","MEAN_MOTION":"15.69919036","ECCENTRICITY":"0.00037060","PERIOD":"91.724","CENTER_NAME":"EARTH","BSTAR":"-0.00002426700000","INCLINATION":"70.0003","TLE_LINE2":"2 55314  70.0003 268.6709 0003706 264.0996  95.9778 15.69919036 10645","NORAD_CAT_ID":"55314","MEAN_MOTION_DDOT":"0.0000000000000","MEAN_ELEMENT_THEORY":"SGP4","MEAN_MOTION_DOT":"-0.00003129","REF_FRAME":"TEME","APOAPSIS":"361.627","MEAN_ANOMALY":"95.9778","RCS_SIZE":"LARGE","TLE_LINE1":"1 55314U 23010AX  23076.52114537 -.00003129  00000-0 -24267-4 0  9992","SITE":"AFWTR","OBJECT_ID":"2023-010AX","REV_AT_EPOCH":"1064","EPHEMERIS_TYPE":"0","DECAY_DATE":null,"COUNTRY_CODE":"US","OBJECT_NAME":"STARLINK-5305","ELEMENT_SET_NO":"999","SEMIMAJOR_AXIS":"6737.266","EPOCH":"2023-03-17T12:30:26.959968","RA_OF_ASC_NODE":"268.6709","ARG_OF_PERICENTER":"264.0996","PERIAPSIS":"356.634"},{"EPOCH":"2023-03-17T17:08:54.514176","SEMIMAJOR_AXIS":"6737.228","ELEMENT_SET_NO":"999","PERIAPSIS":"356.887","RA_OF_ASC_NODE":"268.1413","ARG_OF_PERICENTER":"268.6906","OBJECT_ID":"2023-010AY","REV_AT_EPOCH":"978","SITE":"AFWTR","TLE_LINE1":"1 55315U 23010AY  23076.71451984  .00009601  00000-0  81500-4 0  9996","OBJECT_NAME":"STARLINK-4623","COUNTRY_CODE":"US","DECAY_DATE":null,"EPHEMERIS_TYPE":"0","MEAN_MOTION_DOT":"0.00009601","REF_FRAME":"TEME","MEAN_MOTION_DDOT":"0.0000000000000","MEAN_ELEMENT_THEORY":"SGP4","TLE_LINE2":"2 55315  69.9998 268.1413 0003273 268.6906  91.3914 15.69932341  9782","NORAD_CAT_ID":"55315","INCLINATION":"69.9998","RCS_SIZE":"LARGE","MEAN_ANOMALY":"91.3914","APOAPSIS":"361.298","OBJECT_TYPE":"PAYLOAD","FILE":"3863544","BSTAR":"0.00008150000000","PERIOD":"91.724","ECCENTRICITY":"0.00032730","CENTER_NAME":"EARTH","MEAN_MOTION":"15.69932341","CLASSIFICATION_TYPE":"U","TIME_SYSTEM":"UTC","GP_ID":"228358598","LAUNCH_DATE":"2023-01-19"},{"DECAY_DATE":null,"EPHEMERIS_TYPE":"0","COUNTRY_CODE":"US","OBJECT_NAME":"STARLINK-5257","REV_AT_EPOCH":"130","OBJECT_ID":"2023-010AZ","TLE_LINE1":"1 55316U 23010AZ  23076.91667824  .00128651  00000-0  10601-2 0  9990","SITE":"AFWTR","PERIAPSIS":"356.882","ARG_OF_PERICENTER":"268.2750","RA_OF_ASC_NODE":"267.7594","EPOCH":"2023-03-17T22:00:00.999936","ELEMENT_SET_NO":"999","SEMIMAJOR_AXIS":"6737.565","CENTER_NAME":"EARTH","ECCENTRICITY":"0.00037810","PERIOD":"91.731","BSTAR":"0.00106010000000","GP_ID":"228358850","LAUNCH_DATE":"2023-01-19","TIME_SYSTEM":"UTC","CLASSIFICATION_TYPE":"U","MEAN_MOTION":"15.69814492","OBJECT_TYPE":"PAYLOAD","FILE":"3863544","RCS_SIZE":"LARGE","APOAPSIS":"361.977","MEAN_ANOMALY":"357.0331","MEAN_MOTION_DDOT":"0.0000000000000","MEAN_ELEMENT_THEORY":"SGP4","REF_FRAME":"TEME","MEAN_MOTION_DOT":"0.00128651","INCLINATION":"70.0001","TLE_LINE2":"2 55316  70.0001 267.7594 0003781 268.2750 357.0331 15.69814492  1304","NORAD_CAT_ID":"55316"},{"OBJECT_TYPE":"PAYLOAD","FILE":"3863498","CENTER_NAME":"EARTH","ECCENTRICITY":"0.00035710","PERIOD":"91.724","BSTAR":"0.00001809900000","LAUNCH_DATE":"2023-01-19","GP_ID":"228333093","CLASSIFICATION_TYPE":"U","MEAN_MOTION":"15.69928412","TIME_SYSTEM":"UTC","MEAN_MOTION_DDOT":"0.0000000000000","MEAN_ELEMENT_THEORY":"SGP4","REF_FRAME":"TEME","MEAN_MOTION_DOT":"0.00001964","INCLINATION":"70.0013","TLE_LINE2":"2 55317  70.0013 268.6718 0003571 270.1722  89.9064 15.69928412  9450","NORAD_CAT_ID":"55317","RCS_SIZE":"LARGE","APOAPSIS":"361.510","MEAN_ANOMALY":"89.9064","REV_AT_EPOCH":"945","OBJECT_ID":"2023-010BA","TLE_LINE1":"1 55317U 23010BA  23076.52126579  .00001964  00000-0  18099-4 0  9993","SITE":"AFWTR","DECAY_DATE":null,"EPHEMERIS_TYPE":"0","COUNTRY_CODE":"US","OBJECT_NAME":"STARLINK-5265","EPOCH":"2023-03-17T12:30:37.364256","ELEMENT_SET_NO":"999","SEMIMAJOR_AXIS":"6737.239","PERIAPSIS":"356.698","ARG_OF_PERICENTER":"270.1722","RA_OF_ASC_NODE":"268.6718"},{"PERIAPSIS":"356.907","RA_OF_ASC_NODE":"268.6695","ARG_OF_PERICENTER":"277.8056","EPOCH":"2023-03-17T12:30:19.817280","ELEMENT_SET_NO":"999","SEMIMAJOR_AXIS":"6737.316","DECAY_DATE":null,"EPHEMERIS_TYPE":"0","COUNTRY_CODE":"US","OBJECT_NAME":"STARLINK-5180","OBJECT_ID":"2023-010BB","REV_AT_EPOCH":"945","TLE_LINE1":"1 55318U 23010BB  23076.52106270 -.00004413  00000-0 -34984-4 0  9995","SITE":"AFWTR","RCS_SIZE":"LARGE","APOAPSIS":"361.456","MEAN_ANOMALY":"82.2756","MEAN_MOTION_DDOT":"0.0000000000000","MEAN_ELEMENT_THEORY":"SGP4","MEAN_MOTION_DOT":"-0.00004413","REF_FRAME":"TEME","INCLINATION":"70.0000","TLE_LINE2":"2 55318  70.0000 268.6695 0003376 277.8056  82.2756 15.69901317  9457","NORAD_CAT_ID":"55318","PERIOD":"91.726","ECCENTRICITY":"0.00033760","CENTER_NAME":"EARTH","BSTAR":"-0.00003498400000","LAUNCH_DATE":"2023-01-19","GP_ID":"228296344","MEAN_MOTION":"15.69901317","CLASSIFICATION_TYPE":"U","TIME_SYSTEM":"UTC","OBJECT_TYPE":"PAYLOAD","FILE":"3863061"},{"FILE":"3863544","OBJECT_TYPE":"PAYLOAD","MEAN_MOTION":"15.69936637","CLASSIFICATION_TYPE":"U","TIME_SYSTEM":"UTC","LAUNCH_DATE":"2023-01-19","GP_ID":"228358099","BSTAR":"0.00004371700000","PERIOD":"91.723","ECCENTRICITY":"0.00030650","CENTER_NAME":"EARTH","TLE_LINE2":"2 55319  69.9989 268.1347 0003065 272.7277  87.3568 15.69936637 10670","NORAD_CAT_ID":"55319","INCLINATION":"69.9989","MEAN_MOTION_DOT":"0.00005050","REF_FRAME":"TEME","MEAN_ELEMENT_THEORY":"SGP4","MEAN_MOTION_DDOT":"0.0000000000000","MEAN_ANOMALY":"87.3568","APOAPSIS":"361.145","RCS_SIZE":"LARGE","SITE":"AFWTR","TLE_LINE1":"1 55319U 23010BC  23076.71209407  .00005050  00000-0  43717-4 0  9993","OBJECT_ID":"2023-010BC","REV_AT_EPOCH":"1067","OBJECT_NAME":"STARLINK-5196","COUNTRY_CODE":"US","DECAY_DATE":null,"EPHEMERIS_TYPE":"0","SEMIMAJOR_AXIS":"6737.215","ELEMENT_SET_NO":"999","EPOCH":"2023-03-17T17:05:24.927648","RA_OF_ASC_NODE":"268.1347","ARG_OF_PERICENTER":"272.7277","PERIAPSIS":"357.015"},{"SITE":"AFETR","TLE_LINE1":"1 55331U 23013A   23076.91667824 -.00862682  00000-0 -11612-1 0  9993","OBJECT_ID":"2023-013A","REV_AT_EPOCH":"130","OBJECT_NAME":"STARLINK-5492","DECAY_DATE":null,"EPHEMERIS_TYPE":"0","COUNTRY_CODE":"US","SEMIMAJOR_AXIS":"6767.424","ELEMENT_SET_NO":"999","EPOCH":"2023-03-17T22:00:00.999936","RA_OF_ASC_NODE":"98.7304","ARG_OF_PERICENTER":"262.8117","PERIAPSIS":"388.399","FILE":"3863544","OBJECT_TYPE":"PAYLOAD","CLASSIFICATION_TYPE":"U","MEAN_MOTION":"15.59436484","TIME_SYSTEM":"UTC","LAUNCH_DATE":"2023-01-26","GP_ID":"228358100","BSTAR":"-0.01161200000000","PERIOD":"92.341","ECCENTRICITY":"0.00013150","CENTER_NAME":"EARTH","TLE_LINE2":"2 55331  42.9998  98.7304 0001315 262.8117 314.4115 15.59436484  1300","NORAD_CAT_ID":"55331","INCLINATION":"42.9998","MEAN_MOTION_DOT":"-0.00862682","REF_FRAME":"TEME","MEAN_MOTION_DDOT":"0.0000000000000","MEAN_ELEMENT_THEORY":"SGP4","MEAN_ANOMALY":"314.4115","APOAPSIS":"390.179","RCS_SIZE":"LARGE"},{"OBJECT_TYPE":"PAYLOAD","FILE":"3863334","ECCENTRICITY":"0.00016800","PERIOD":"91.641","CENTER_NAME":"EARTH","BSTAR":"0.00001472900000","GP_ID":"228329460","LAUNCH_DATE":"2023-01-26","MEAN_MOTION":"15.71351449","CLASSIFICATION_TYPE":"U","TIME_SYSTEM":"UTC","MEAN_ELEMENT_THEORY":"SGP4","MEAN_MOTION_DDOT":"0.0000000000000","MEAN_MOTION_DOT":"0.00001479","REF_FRAME":"TEME","INCLINATION":"43.0012","TLE_LINE2":"2 55332  43.0012  99.8342 0001680 316.2756  43.7978 15.71351449  8376","NORAD_CAT_ID":"55332","RCS_SIZE":"LARGE","APOAPSIS":"356.167","MEAN_ANOMALY":"43.7978","OBJECT_ID":"2023-013B","REV_AT_EPOCH":"837","TLE_LINE1":"1 55332U 23013B   23076.54197740  .00001479  00000-0  14729-4 0  9990","SITE":"AFETR","EPHEMERIS_TYPE":"0","DECAY_DATE":null,"COUNTRY_CODE":"US","OBJECT_NAME":"STARLINK-5491","EPOCH":"2023-03-17T13:00:26.847360","ELEMENT_SET_NO":"999","SEMIMAJOR_AXIS":"6733.171","PERIAPSIS":"353.904","RA_OF_ASC_NODE":"99.8342","ARG_OF_PERICENTER":"316.2756"},{"OBJECT_NAME":"STARLINK-5493","EPHEMERIS_TYPE":"0","DECAY_DATE":null,"COUNTRY_CODE":"US","OBJECT_ID":"2023-013C","REV_AT_EPOCH":"130","SITE":"AFETR","TLE_LINE1":"1 55333U 23013C   23076.91667824 -.00863082  00000-0 -11603-1 0  9990","PERIAPSIS":"388.331","RA_OF_ASC_NODE":"98.7257","ARG_OF_PERICENTER":"261.7276","EPOCH":"2023-03-17T22:00:00.999936","SEMIMAJOR_AXIS":"6767.326","ELEMENT_SET_NO":"999","BSTAR":"-0.01160300000000","ECCENTRICITY":"0.00012710","PERIOD":"92.339","CENTER_NAME":"EARTH","CLASSIFICATION_TYPE":"U","TIME_SYSTEM":"UTC","MEAN_MOTION":"15.59470177","LAUNCH_DATE":"2023-01-26","GP_ID":"228359601","OBJECT_TYPE":"PAYLOAD","FILE":"3863544","RCS_SIZE":"LARGE","MEAN_ANOMALY":"317.4066","APOAPSIS":"390.052","MEAN_MOTION_DOT":"-0.00863082","REF_FRAME":"TEME","MEAN_ELEMENT_THEORY":"SGP4","MEAN_MOTION_DDOT":"0.0000000000000","TLE_LINE2":"2 55333  42.9996  98.7257 0001271 261.7276 317.4066 15.59470177  1307","NORAD_CAT_ID":"55333","INCLINATION":"42.9996"}];
